NORAD_CAT_ID,OBJECT_NAME,OBJECT_TYPE,EPOCH,MEAN_MOTION,ECCENTRICITY,INCLINATION,RA_OF_ASC_NODE,ARG_OF_PERICENTER,MEAN_ANOMALY,BSTAR,MEAN_MOTION_DOT,MEAN_MOTION_DDOT,TLE_LINE0,TLE_LINE1,TLE_LINE2,SEMIMAJOR_AXIS,PERIOD,APOGEE,PERIGEE,DECAYED
55404.0,STARLINK-5607,PAYLOAD,2023-04-11 12:22:02,15.69926433,0.0003234,70.0013,253.3634,270.8291,89.2534,7.547e-06,6.95e-06,0.0,0 STARLINK-5607,1 55404U 23014P   23101.51530816  .00000695  00000-0  75470-5 0  9992,2 55404  70.0013 253.3634 0003234 270.8291  89.2534 15.69926433 12101,6737.244,91.724,361.288,356.931,0.0
55404.0,STARLINK-5607,PAYLOAD,2023-04-11 20:00:48,15.69932641,0.0003549,69.9981,252.4637,280.0758,80.0037,1.5979e-05,1.71e-05,0.0,0 STARLINK-5607,1 55404U 23014P   23101.83388898  .00001710  00000-0  15979-4 0  9994,2 55404  69.9981 252.4637 0003549 280.0758  80.0037 15.69932641 12155,6737.227,91.724,361.483,356.701,0.0
55404.0,STARLINK-5607,PAYLOAD,2023-04-12 11:18:19,15.69929874,0.0003399,70.0007,250.6744,279.2045,80.8766,2.0284e-05,2.227e-05,0.0,0 STARLINK-5607,1 55404U 23014P   23102.47105849  .00002227  00000-0  20284-4 0  9997,2 55404  70.0007 250.6744 0003399 279.2045  80.8766 15.69929874 12250,6737.235,91.724,361.39,356.81,0.0
55404.0,STARLINK-5607,PAYLOAD,2023-04-13 08:42:51,15.69916525,0.0003274,69.9999,248.1669,280.4533,79.6294,3.6538e-05,4.181e-05,0.0,0 STARLINK-5607,1 55404U 23014P   23103.36309988  .00004181  00000-0  36538-4 0  9996,2 55404  69.9999 248.1669 0003274 280.4533  79.6294 15.69916525 12399,6737.273,91.725,361.344,356.932,0.0
55404.0,STARLINK-5607,PAYLOAD,2023-04-14 12:14:23,15.69934741,0.0003824,70.0005,244.942,272.9249,87.1509,2.5571e-05,2.864e-05,0.0,0 STARLINK-5607,1 55404U 23014P   23104.50998910  .00002864  00000-0  25571-4 0  9993,2 55404  70.0005 244.9420 0003824 272.9249  87.1509 15.69934741 12573,6737.221,91.724,361.662,356.509,0.0
55404.0,STARLINK-5607,PAYLOAD,2023-04-14 19:53:09,15.69904968,0.0003452,69.999,244.0455,272.4836,87.5964,-3.0475e-05,-3.873e-05,0.0,0 STARLINK-5607,1 55404U 23014P   23104.82858625 -.00003873  00000-0 -30475-4 0  9998,2 55404  69.9990 244.0455 0003452 272.4836  87.5964 15.69904968 11684,6737.306,91.725,361.497,356.845,0.0
55404.0,STARLINK-5607,PAYLOAD,2023-04-15 12:42:26,15.69915367,0.0003416,70.0025,242.0788,283.5072,76.5743,9.9094e-06,9.79e-06,0.0,0 STARLINK-5607,1 55404U 23014P   23105.52947026  .00000979  00000-0  99094-5 0  9995,2 55404  70.0025 242.0788 0003416 283.5072  76.5743 15.69915367 11798,6737.276,91.725,361.443,356.84,0.0
55404.0,STARLINK-5607,PAYLOAD,2023-04-15 18:49:26,15.69916196,0.0003124,69.9998,241.3593,282.317,77.7676,9.9632e-07,-9.3e-07,0.0,0 STARLINK-5607,1 55404U 23014P   23105.78433540 -.00000093  00000-0  99632-6 0  9991,2 55404  69.9998 241.3593 0003124 282.3170  77.7676 15.69916196 12770,6737.274,91.725,361.243,357.034,0.0
55404.0,STARLINK-5607,PAYLOAD,2023-04-16 11:38:42,15.69921951,0.0003743,70.0004,239.3893,277.0691,83.0079,3.8896e-06,2.55e-06,0.0,0 STARLINK-5607,1 55404U 23014P   23106.48521447  .00000255  00000-0  38896-5 0  9996,2 55404  70.0004 239.3893 0003743 277.0691  83.0079 15.69921951 11947,6737.257,91.724,361.644,356.601,0.0
55404.0,STARLINK-5607,PAYLOAD,2023-04-16 17:45:42,15.69928286,0.0003734,70.0002,238.6717,282.8621,77.2158,2.1515e-05,2.375e-05,0.0,0 STARLINK-5607,1 55404U 23014P   23106.74008001  .00002375  00000-0  21515-4 0  9995,2 55404  70.0002 238.6717 0003734 282.8621  77.2158 15.69928286 12929,6737.239,91.724,361.62,356.588,0.0
55404.0,STARLINK-5607,PAYLOAD,2023-04-17 12:06:44,15.69925447,0.000293,70.0001,236.5199,270.0063,90.0797,1.655e-05,1.778e-05,0.0,0 STARLINK-5607,1 55404U 23014P   23107.50468320  .00001778  00000-0  16550-4 0  9993,2 55404  70.0001 236.5199 0002930 270.0063  90.0797 15.69925447 13047,6737.247,91.724,361.086,357.138,0.0
55404.0,STARLINK-5607,PAYLOAD,2023-04-17 18:13:45,15.69918824,0.0002894,70.0005,235.805,295.2516,64.838,-3.3448e-06,-6.14e-06,0.0,0 STARLINK-5607,1 55404U 23014P   23107.75955664 -.00000614  00000-0 -33448-5 0  9998,2 55404  70.0005 235.8050 0002894 295.2516  64.8380 15.69918824 13082,6737.266,91.724,361.081,357.181,0.0
55404.0,STARLINK-5607,PAYLOAD,2023-04-18 09:31:16,15.69921527,0.0003581,69.9999,234.0116,271.6094,88.4691,1.1524e-05,1.173e-05,0.0,0 STARLINK-5607,1 55404U 23014P   23108.39671918  .00001173  00000-0  11524-4 0  9995,2 55404  69.9999 234.0116 0003581 271.6094  88.4691 15.69921527 12246,6737.259,91.724,361.536,356.711,0.0
55404.0,STARLINK-5607,PAYLOAD,2023-04-18 17:10:02,15.69927627,0.0003364,69.9999,233.1173,275.7715,84.3097,2.2222e-05,2.46e-05,0.0,0 STARLINK-5607,1 55404U 23014P   23108.71530100  .00002460  00000-0  22222-4 0  9995,2 55404  69.9999 233.1173 0003364 275.7715  84.3097 15.69927627 13235,6737.241,91.724,361.372,356.84,0.0
55404.0,STARLINK-5607,PAYLOAD,2023-04-19 16:06:18,15.69927247,0.0003472,70.0015,230.43,271.2114,88.8684,1.9777e-05,2.166e-05,0.0,0 STARLINK-5607,1 55404U 23014P   23109.67105085  .00002166  00000-0  19777-4 0  9995,2 55404  70.0015 230.4300 0003472 271.2114  88.8684 15.69927247 13388,6737.242,91.724,361.446,356.768,0.0
55404.0,STARLINK-5607,PAYLOAD,2023-04-20 08:55:35,15.69925132,0.0003342,70.0006,228.4608,265.7821,94.2993,9.814e-06,9.68e-06,0.0,0 STARLINK-5607,1 55404U 23014P   23110.37193570  .00000968  00000-0  98140-5 0  9990,2 55404  70.0006 228.4608 0003342 265.7821  94.2993 15.69925132 13492,6737.248,91.724,361.365,356.862,0.0
55404.0,STARLINK-5607,PAYLOAD,2023-04-20 16:34:21,15.69917365,0.0003515,70.0014,227.5657,267.1319,92.9474,-6.5469e-06,-1e-05,0.0,0 STARLINK-5607,1 55404U 23014P   23110.69052362 -.00001000  00000-0 -65469-5 0  9996,2 55404  70.0014 227.5657 0003515 267.1319  92.9474 15.69917365 13549,6737.27,91.725,361.504,356.767,0.0
55404.0,STARLINK-5607,PAYLOAD,2023-04-20 18:06:06,15.69919988,0.0003622,70.0014,227.3869,267.1742,92.9039,-1.1854e-06,-3.55e-06,0.0,0 STARLINK-5607,1 55404U 23014P   23110.75424019 -.00000355  00000-0 -11854-5 0  9996,2 55404  70.0014 227.3869 0003622 267.1742  92.9039 15.69919988 12618,6737.263,91.724,361.568,356.688,0.0
55404.0,STARLINK-5607,PAYLOAD,2023-04-21 13:58:52,15.69921091,0.0003661,69.9998,225.0579,261.5677,98.5104,2.434e-05,2.715e-05,0.0,0 STARLINK-5607,1 55404U 23014P   23111.58255700  .00002715  00000-0  24340-4 0  9990,2 55404  69.9998 225.0579 0003661 261.5677  98.5104 15.69921091 13688,6737.26,91.724,361.591,356.658,0.0
55404.0,STARLINK-5607,PAYLOAD,2023-04-21 17:02:23,15.69914959,0.0003201,69.9996,224.7,257.03,103.0539,8.3117e-06,7.86e-06,0.0,0 STARLINK-5607,1 55404U 23014P   23111.70999448  .00000786  00000-0  83117-5 0  9992,2 55404  69.9996 224.7000 0003201 257.0300 103.0539 15.69914959 13706,6737.277,91.725,361.299,356.986,0.0
55404.0,STARLINK-5607,PAYLOAD,2023-04-22 09:51:37,15.69957464,0.0003705,69.9996,222.7287,262.1678,97.9097,7.5357e-05,8.871e-05,0.0,0 STARLINK-5607,1 55404U 23014P   23112.41085576  .00008871  00000-0  75357-4 0  9998,2 55404  69.9996 222.7287 0003705 262.1678  97.9097 15.69957464 12870,6737.156,91.722,361.517,356.525,0.0
55404.0,STARLINK-5607,PAYLOAD,2023-04-23 07:16:11,15.69920647,0.0003342,69.9988,220.2191,264.8939,95.1875,1.7872e-05,1.936e-05,0.0,0 STARLINK-5607,1 55404U 23014P   23113.30290900  .00001936  00000-0  17872-4 0  9999,2 55404  69.9988 220.2191 0003342 264.8939  95.1875 15.69920647 13951,6737.261,91.724,361.378,356.874,0.0
55404.0,STARLINK-5607,PAYLOAD,2023-04-23 16:26:41,15.69929272,0.0003021,69.9989,219.1447,268.509,91.576,2.9321e-05,3.315e-05,0.0,0 STARLINK-5607,1 55404U 23014P   23113.68520621  .00003315  00000-0  29321-4 0  9991,2 55404  69.9989 219.1447 0003021 268.5090  91.5760 15.69929272 14010,6737.236,91.724,361.137,357.066,0.0
55404.0,STARLINK-5607,PAYLOAD,2023-04-24 06:12:27,15.69946114,0.000295,69.9998,217.533,262.3834,97.7027,4.3673e-05,5.046e-05,0.0,0 STARLINK-5607,1 55404U 23014P   23114.25864668  .00005046  00000-0  43673-4 0  9996,2 55404  69.9998 217.5330 0002950 262.3834  97.7027 15.69946114 14109,6737.188,91.723,361.041,357.066,0.0
55404.0,STARLINK-5607,PAYLOAD,2023-04-24 16:55:12,15.69272732,0.0004532,69.9995,216.2793,321.2488,38.8381,-0.0014064,-0.00161754,0.0,0 STARLINK-5607,1 55404U 23014P   23114.70500748 -.00161754  00000-0 -14064-2 0  9993,2 55404  69.9995 216.2793 0004532 321.2488  38.8381 15.69272732 13233,6739.115,91.762,364.035,357.926,0.0
55404.0,STARLINK-5607,PAYLOAD,2023-04-25 06:41:27,15.69079907,0.0001942,70.0019,214.666,94.2491,265.8926,-0.0012348,-0.00141177,0.0,0 STARLINK-5607,1 55404U 23014P   23115.27879315 -.00141177  00000-0 -12348-2 0  9995,2 55404  70.0019 214.6660 0001942  94.2491 265.8926 15.69079907 13327,6739.667,91.774,362.841,360.224,0.0
55404.0,STARLINK-5607,PAYLOAD,2023-04-25 22:00:00,15.69966477,0.000363,69.9994,212.8714,280.0453,87.7186,6.7387e-05,7.912e-05,0.0,0 STARLINK-5607,1 55404U 23014P   23115.91667824  .00007912  00000-0  67387-4 0  9997,2 55404  69.9994 212.8714 0003630 280.0453  87.7186 15.69966477 13422,6737.13,91.722,361.44,356.549,0.0
55404.0,STARLINK-5607,PAYLOAD,2023-04-25 23:29:47,15.69908064,0.0003395,69.9997,212.697,270.2226,89.858,1.2439e-06,-6.3e-07,0.0,0 STARLINK-5607,1 55404U 23014P   23115.97902453 -.00000063  00000-0  12439-5 0  9993,2 55404  69.9997 212.6970 0003395 270.2226  89.8580 15.69908064 13434,6737.297,91.725,361.449,356.875,0.0
55404.0,STARLINK-5607,PAYLOAD,2023-04-26 08:40:17,15.69951403,0.0002974,70.0018,211.6237,270.0002,90.0853,0.00014442,0.00017207,0.0,0 STARLINK-5607,1 55404U 23014P   23116.36131781  .00017207  00000-0  14442-3 0  9996,2 55404  70.0018 211.6237 0002974 270.0002  90.0853 15.69951403 14431,6737.173,91.723,361.042,357.034,0.0
55404.0,STARLINK-5607,PAYLOAD,2023-04-27 09:08:19,15.69930421,0.0002993,69.9993,208.7574,267.4508,92.6345,6.1745e-05,7.22e-05,0.0,0 STARLINK-5607,1 55404U 23014P   23117.38078432  .00007220  00000-0  61745-4 0  9995,2 55404  69.9993 208.7574 0002993 267.4508  92.6345 15.69930421 13657,6737.233,91.724,361.115,357.082,0.0
